OBJECT_NAME,OBJECT_ID,EPOCH,MEAN_MOTION,ECCENTRICITY,INCLINATION,RA_OF_ASC_NODE,ARG_OF_PERICENTER,MEAN_ANOMALY,EPHEMERIS_TYPE,CLASSIFICATION_TYPE,NORAD_CAT_ID,ELEMENT_SET_NO,REV_AT_EPOCH,BSTAR,MEAN_MOTION_DOT,MEAN_MOTION_DDOT
HST,1990-037B,2026-07-15T12:00:30.574368,15.31063070,.00021916,28.4723,247.0189,106.0764,254.0074,0,U,20580,999,79291,.10487846E-3,.3469E-4,0
POLAR,1996-013A,2026-07-14T18:22:21.811008,1.29846068,.64980873,79.8911,226.7248,208.1291,91.6735,0,U,23802,999,14521,0,.202E-5,0
SWAS,1998-071A,2026-07-15T21:41:45.873024,15.09749630,.00079151,69.8941,153.4556,229.7336,130.3137,0,U,25560,999,50160,.102583E-3,.1554E-4,0
CXO,1999-040B,2026-07-17T11:15:10.202112,0.37805709,.7787022,56.6226,115.7943,310.0504,0.5333,0,U,25867,999,1743,0,.598E-5,0
XMM-NEWTON,1999-066A,2026-07-18T06:21:44.482752,0.50127855,.46650361,64.3180,282.5861,64.3602,359.9798,0,U,25989,999,2315,0,-.5E-7,0
TERRA,1999-068A,2026-07-15T21:58:06.704832,14.61123995,.00034454,97.9441,245.3203,121.1429,292.0122,0,U,25994,999,41380,.44336919E-4,.174E-5,0
CLUSTER II-FM7 (SAMBA),2000-041A,2026-07-16T03:20:59.007840,0.44844033,.90886903,149.8273,56.2567,273.7641,359.2168,0,U,26410,999,2044,0,.51232E-3,-.58450349E-4
CLUSTER II-FM8 (TANGO),2000-045B,2026-07-14T10:49:09.907104,0.44416740,.9090382,150.0346,57.1658,274.4944,1.9905,0,U,26464,999,2043,0,.19808E-3,0
ODIN,2001-007A,2026-07-15T02:49:01.855776,15.89461170,.00050031,97.3728,239.0985,152.5421,207.6117,0,U,26702,999,39381,.92766465E-3,.26805E-2,.2811748E-4
TIMED,2001-055B,2026-07-15T23:27:35.341632,14.95345532,.00022551,74.0666,177.0467,299.8954,60.2006,0,U,26998,999,33512,.5327135E-4,.548E-5,0
CORIOLIS,2003-001A,2026-07-15T22:43:28.184736,14.19951970,.00149513,98.7134,203.3932,127.1825,233.0719,0,U,27640,999,21830,.36310317E-4,.34E-6,0
SORCE,2003-004A,2026-07-15T02:21:46.299456,15.03841818,.00187098,39.9910,102.4143,253.8759,105.9975,0,U,27651,999,27610,.10927068E-3,.1382E-4,0
MOST,2003-031D,2026-07-15T22:23:41.536032,14.21327797,.00101258,98.7053,204.2585,162.9842,197.1677,0,U,27843,999,19479,.25081935E-4,.11E-6,0
SCISAT 1,2003-036A,2026-07-15T22:12:36.633600,14.81479370,.0007337,73.9301,114.2440,182.1832,177.9314,0,U,27858,999,23570,.37475866E-4,.257E-5,0
SWIFT,2004-047A,2026-07-15T11:10:37.909920,15.71188268,.0002205,20.5527,326.3099,28.4870,331.5697,0,U,28485,999,19131,.30635095E-3,.41696E-3,0
HINODE (SOLAR-B),2006-041A,2026-07-15T22:28:49.262592,14.68658759,.00170857,98.0548,212.6654,192.0706,168.0092,0,U,29479,999,5909,.56678506E-4,.281E-5,0
SHIJIAN-6 02A (SJ-6 02A),2006-046A,2026-07-15T21:57:11.528064,15.17249325,.00042829,97.6346,238.1997,61.2867,298.8796,0,U,29505,999,7662,.12815112E-3,.2481E-4,0
SHIJIAN-6 02B (SJ-6 02B),2006-046B,2026-07-16T00:05:36.320640,15.01438641,.00133216,97.7143,225.8837,333.5658,26.4885,0,U,29506,999,7506,.44106667E-4,.509E-5,0
FGRST (GLAST),2008-029A,2026-07-15T18:37:14.285856,15.24078577,.00077746,25.5829,5.9555,306.4687,53.5135,0,U,33053,999,5,.65298244E-4,.1968E-4,0
SDO,2010-005A,2026-07-15T08:15:29.770848,1.00277108,.00018358,34.7081,85.9138,46.0485,182.8654,0,U,36395,999,6034,0,-.103E-5,0
CRYOSAT 2,2010-013A,2026-07-15T23:01:03.349920,14.51898563,.00024058,92.0359,284.2963,98.7234,261.4245,0,U,36508,999,86225,.29082401E-4,.12E-5,0
X-SAT,2011-015C,2026-07-15T22:32:47.933088,14.25213521,.00127189,98.3523,172.5958,258.5414,101.4338,0,U,37389,999,79177,-.30665852E-4,-.113E-5,0
GCOM-W1 (SHIZUKU),2012-025A,2026-07-15T20:59:55.580640,14.57090500,.00013018,98.2024,136.9968,78.0138,349.2281,0,U,38337,999,75321,.53473725E-4,.196E-5,0
NUSTAR,2012-031A,2026-07-16T00:00:02.000160,15.09046623,.00077747,6.0245,177.9673,185.1070,247.5534,0,U,38358,999,130,.23478178E-3,.469E-4,0
NEOSSAT,2013-009D,2026-07-15T18:44:30.424416,14.35835788,.00114807,98.4190,16.1354,155.5744,204.5989,0,U,39089,999,70084,.31660367E-4,.49E-6,0
BRITE-AUSTRIA,2013-009F,2026-07-15T18:22:01.530336,14.36552666,.00107934,98.4008,15.4957,149.0396,211.1429,0,U,39091,999,70115,.39947583E-4,.75E-6,0
IRIS,2013-033A,2026-07-15T12:21:34.101792,14.85937284,.00233476,97.9319,35.7028,223.9146,136.0214,0,U,39197,999,70458,.64789131E-4,.512E-5,0
HISAKI (SPRINT-A),2013-049A,2026-07-15T22:12:03.805056,13.55546789,.01369851,29.7213,73.9016,249.7982,108.7810,0,U,39253,999,63532,.29468026E-4,.89E-6,0
CASSIOPE,2013-055A,2026-07-15T22:31:17.931072,15.27448387,.02827423,80.9127,31.7343,325.3550,32.9538,0,U,39265,999,67205,.19799458E-3,.18495E-3,-.538735E-6
STSAT-3,2013-066G,2026-07-15T22:38:05.381376,15.02888092,.00089061,97.6189,166.3672,302.2756,57.7606,0,U,39422,999,68852,.11397582E-3,.1469E-4,0
